OBJECT_NAME,OBJECT_ID,EPOCH,MEAN_MOTION,ECCENTRICITY,INCLINATION,RA_OF_ASC_NODE,ARG_OF_PERICENTER,MEAN_ANOMALY,EPHEMERIS_TYPE,CLASSIFICATION_TYPE,NORAD_CAT_ID,ELEMENT_SET_NO,REV_AT_EPOCH,BSTAR,MEAN_MOTION_DOT,MEAN_MOTION_DDOT
BLUEWALKER-3,2022-111AL,2026-07-23T07:10:21.169632,15.38673785,.0004806,53.2275,224.3819,301.0429,59.0104,0,U,53807,999,21576,.13366E-3,.479E-4,0
